  <relation id="53134">
    <tag k="name" v="Vlaanderen en Brussel"/>
    <tag k="name:ar" v="فلاندرز وبروكسل"/>
    <tag k="name:ca" v="Flandes i Brussel·les"/>
    <tag k="name:de" v="Flandern und Brüssel"/>
    <tag k="name:el" v="Φλάνδρα και Βρυξέλλες"/>
    <tag k="name:en" v="Flanders and Brussels"/>
    <tag k="name:eo" v="Flandrio kaj Bruselo"/>
    <tag k="name:es" v="Flandes y Bruselas"/>
    <tag k="name:et" v="Flandria ja Brüssel"/>
    <tag k="name:fi" v="Flanderi ja Bryssel"/>
    <tag k="name:fr" v="Flandre et Bruxelles"/>
    <tag k="name:fy" v="Flaanderen en Brussel "/>
    <tag k="name:hu" v="Flandria és Brüsszel"/>
    <tag k="name:ja" v="フランダースとブリュッセル"/>
    <tag k="name:ka" v="ფლანდრია და ბრიუსელი "/>
    <tag k="name:ko" v="플랑드르와 브뤼셀"/>
    <tag k="name:lb" v="Flandern a Bréissel"/>
    <tag k="name:lt" v="Flandrija ir Briuselis"/>
    <tag k="name:nl" v="Vlaanderen en Brussel"/>
    <tag k="name:pt" v="Flandres e Bruxelas"/>
    <tag k="name:ru" v="Фландрия И Брюссель"/>
    <tag k="name:sk" v="Flámsko a Brusel"/>
    <tag k="name:th" v="แฟลนเดอร์สและบรัสเซลส์"/>
    <tag k="name:zh" v="法兰德斯和布鲁塞尔"/>
    <tag k="name:zh-Hans" v="法兰德斯和布鲁塞尔"/>
    <tag k="name:zh-Hant" v="法蘭德斯和布魯塞爾"/>
  </relation>
  <relation id="62504">
    <tag k="name" v="Brandenburg und Berlin"/>
    <tag k="name:en" v="Brandenburg and Berlin"/>
    <tag k="name:ar" v="براندنبورغ وبرلين"/>
    <tag k="name:bg" v="Бранденбург и Берлин"/>
    <tag k="name:cs" v="Braniborsko a Berlín "/>
    <tag k="name:de" v="Brandenburg und Berlin"/>
    <tag k="name:el" v="Βρανδεμβούργο και Βερολίνο "/>
    <tag k="name:es" v="Brandeburgo y Berlín "/>
    <tag k="name:fa" v="براندنبورگ و برلین"/>
    <tag k="name:fr" v="Brandebourg et Berlin"/>
    <tag k="name:he" v="ברנדנבורג וברלין"/>
    <tag k="name:hu" v="Brandenburg és Berlin"/>
    <tag k="name:it" v="Brandeburgo e Berlino"/>
    <tag k="name:ja" v="ブランデンブルクとベルリン"/>
    <tag k="name:ko" v="브란덴부르크와 베를린"/>
    <tag k="name:nl" v="Brandenburg en Berlijn"/>
    <tag k="name:pl" v="Brandenburgia i Berlin"/>    
    <tag k="name:ru" v="Бранденбург и Берлин"/>
    <tag k="name:sk" v="Brandenbursko a Berlín"/>
    <tag k="name:th" v="บรันเดนบูร์กและเบอร์ลิน"/>
    <tag k="name:uk" v="Бранденбург і Берлін"/>
    <tag k="name:zh" v="勃兰登堡和柏林"/>
  </relation>